OSCAR 7 (AO-7)          
1 07530U 74089B   22217.88878583 -.00000027  00000+0  12081-3 0  9996
2 07530 101.9076 197.9207 0011976 308.9492  80.0925 12.53656165183663
PHASE 3B (AO-10)        
1 14129U 83058B   22217.80887962  .00000144  00000+0  00000+0 0  9990
2 14129  26.4679  88.2400 6014222  95.6377 331.4149  2.05868400266427
UOSAT 2 (UO-11)         
1 14781U 84021B   22217.48031534  .00000377  00000+0  51594-4 0  9992
2 14781  97.6202 202.6884 0009039 151.2879 208.8834 14.83740552 47310
LUSAT (LO-19)           
1 20442U 90005G   22217.88266109  .00000035  00000+0  29329-4 0  9996
2 20442  98.7973 183.5083 0012322  28.7483 331.4377 14.33075100700185
EYESAT A (AO-27)        
1 22825U 93061C   22217.83693274  .00000009  00000+0  21432-4 0  9998
2 22825  98.8843 249.9116 0007340 267.4642  92.5699 14.30183945505219
ITAMSAT (IO-26)         
1 22826U 93061D   22217.84819040  .00000020  00000+0  25466-4 0  9995
2 22826  98.8788 249.7993 0007928 252.0336 107.9982 14.30531205505471
RADIO ROSTO (RS-15)     
1 23439U 94085A   22217.88597468 -.00000039  00000+0  10000-3 0  9992
2 23439  64.8126  65.6617 0167848 264.1514  94.0256 11.27571969137069
JAS-2 (FO-29)           
1 24278U 96046B   22217.53161177 -.00000007  00000+0  27165-4 0  9995
2 24278  98.5151 234.4712 0350784 155.8016 206.0058 13.53118019282498
TECHSAT 1B (GO-32)      
1 25397U 98043D   22217.41118772  .00000011  00000+0  24467-4 0  9993
2 25397  98.8202 168.0161 0001213  19.8957 340.2268 14.23764305250395
ISS (ZARYA)             
1 25544U 98067A   22218.10817979  .00004822  00000+0  91638-4 0  9993
2 25544  51.6435  89.2946 0005294  87.3382  29.1974 15.50244769352921
PCSAT (NO-44)           
1 26931U 01043C   22217.66576061 -.00000014  00000+0  26206-4 0  9995
2 26931  67.0514 291.3724 0006977 258.1028 101.9291 14.30721517 88447
SAUDISAT 1C (SO-50)     
1 27607U 02058C   22217.91199722  .00000273  00000+0  57903-4 0  9990
2 27607  64.5547 150.5443 0080504 284.9402  74.2798 14.76189641 55670
CUTE-1 (CO-55)          
1 27844U 03031E   22217.45364055  .00000103  00000+0  65714-4 0  9998
2 27844  98.6789 224.4001 0009149 326.6841  33.3760 14.22475355990839
CUBESAT XI-IV (CO-57)   
1 27848U 03031J   22217.85410500  .00000090  00000+0  60245-4 0  9992
2 27848  98.6834 225.3040 0009276 340.4987  19.5835 14.22029642990702
MOZHAYETS 4 (RS-22)     
1 27939U 03042A   22217.83489012  .00000262  00000+0  55070-4 0  9998
2 27939  98.1988 358.5597 0013793  56.2953 303.9565 14.67413487  8284
CUBESAT XI-V            
1 28895U 05043F   22217.30568906  .00000359  00000+0  76770-4 0  9992
2 28895  98.1126 347.9487 0016267 352.3190   7.7761 14.64412637894566
FALCONSAT-3             
1 30776U 07006E   22217.63087385  .00025397  00000+0  34570-3 0  9997
2 30776  35.4306 297.3411 0002974 159.0299 201.0556 15.56583793857247
CUTE-1.7+APD II (CO-65) 
1 32785U 08021C   22217.86808825  .00000953  00000+0  10501-3 0  9991
2 32785  97.6607 187.1640 0014199  72.3835 287.8933 14.89726878773918
DELFI-C3 (DO-64)        
1 32789U 08021G   22217.44789807  .00005972  00000+0  32524-3 0  9992
2 32789  97.3375 242.0005 0011526 145.9360 214.2615 15.14722033779340
SEEDS II (CO-66)        
1 32791U 08021J   22217.44260680  .00001109  00000+0  11213-3 0  9998
2 32791  97.6147 192.1930 0013615  33.3961 326.8115 14.92872859774508
YUBILEINY (RS-30)       
1 32953U 08025A   22217.79502336  .00000024  00000+0  10000-3 0  9995
2 32953  82.5045 153.2588 0019390 149.0081 211.2151 12.43112254644467
KKS-1 (KISEKI)          
1 33499U 09002H   22217.86424146  .00000269  00000+0  46813-4 0  9990
2 33499  98.2113 100.7151 0009561 149.6107 210.5657 14.76073418727539
SWISSCUBE               
1 35932U 09051B   22217.89406546  .00000278  00000+0  72849-4 0  9993
2 35932  98.5638  75.2005 0006263 254.4729 105.5777 14.56915554683297
BEESAT-1                
1 35933U 09051C   22217.84870392  .00000238  00000+0  63892-4 0  9997
2 35933  98.5577  76.7496 0004469 270.2516  89.8169 14.56925429683365
ITUPSAT1                
1 35935U 09051E   22217.48407507  .00000200  00000+0  56380-4 0  9996
2 35935  98.5678  76.4182 0006790 274.8985  85.1436 14.56030024683013
XIWANG-1 (HOPE-1)       
1 36122U 09072B   22217.44542731 -.00000044  00000+0 -26547-5 0  9994
2 36122 100.1862 187.0143 0006909 225.2232 134.8320 13.16370703607252
JUGNU                   
1 37839U 11058B   22217.43991029  .00000330  00000+0  34152-4 0  9990
2 37839  19.9598 238.3442 0018825 337.6595 158.3137 14.12796421559072
SRMSAT                  
1 37841U 11058D   22217.64823047  .00000324  00000+0  32804-4 0  9995
2 37841  19.9729 317.5565 0011799 163.8306 335.4342 14.10763985558194
M-CUBED & EXP-1 PRIME   
1 37855U 11061F   22217.84587654  .00003919  00000+0  17457-3 0  9996
2 37855 101.7153   3.1030 0151587 274.2099  84.1807 15.12982491588703
STRAND-1                
1 39090U 13009E   22217.37634754  .00000081  00000+0  43208-4 0  9996
2 39090  98.4030  54.2309 0010073 121.5615 238.6555 14.35309896494416
SOMP                    
1 39134U 13015E   22217.55054995  .00006954  00000+0  24422-3 0  9996
2 39134  64.8602 260.6177 0035815 273.1760  86.5274 15.29602474514366
BEESAT-3                
1 39135U 13015F   22217.66428516  .00005279  00000+0  21665-3 0  9998
2 39135  64.8659 297.4993 0039414 278.0447  81.6211 15.24654682513615
BEESAT-2                
1 39136U 13015G   22217.67897746  .00004865  00000+0  20959-3 0  9990
2 39136  64.8751 305.9027 0019914 296.7685  63.1407 15.23633708513411
ZACUBE-1 (TSHEPISOSAT)  
1 39417U 13066B   22217.43874852  .00000693  00000+0  90515-4 0  9996
2 39417  97.6397 186.7375 0056110 243.3941 116.1517 14.82485389470389
GOMX-1                  
1 39430U 13066Q   22217.79064449  .00000363  00000+0  73889-4 0  9992
2 39430  97.8053 122.1684 0147676 249.2317 109.3012 14.60289219463490
CUBEBUG-2 (LO-74)       
1 39440U 13066AA  22217.83988322  .00000931  00000+0  13251-3 0  9990
2 39440  97.7288 173.3309 0077901 332.4068  27.3017 14.77146281467579
FUNCUBE-1 (AO-73)       
1 39444U 13066AE  22217.48672841  .00000775  00000+0  97902-4 0  9993
2 39444  97.6276 189.1958 0055100 230.7903 128.8412 14.83593114468798
UWE-3                   
1 39446U 13066AG  22217.84380061  .00000745  00000+0  10249-3 0  9990
2 39446  97.6885 179.7851 0066961 288.8241  70.5717 14.79710170467764
SPROUT                  
1 39770U 14029E   22217.90482018  .00003142  00000+0  32053-3 0  9993
2 39770  97.9467 335.1747 0007158 285.7500  74.2945 14.91371269445038
UNISAT-6                
1 40012U 14033C   22217.50010950  .00000465  00000+0  74667-4 0  9990
2 40012  97.6627  42.8454 0057413   1.7498 358.3902 14.75005990437219
DUCHIFAT-1              
1 40021U 14033M   22217.66707887  .00001539  00000+0  15323-3 0  9995
2 40021  98.0147 168.7766 0011022 234.4075 125.6117 14.93120763442043
QB50P1                  
1 40025U 14033R   22217.32824211  .00000974  00000+0  10519-3 0  9997
2 40025  97.9610 155.1166 0010615 254.9056 105.0987 14.90672151441043
NUDT-PHONESAT           
1 40900U 15049B   22217.87207470  .00014541  00000+0  38979-3 0  9994
2 40900  97.3990 236.1792 0011386 109.5025  12.6297 15.38025346382202
ZDPS 2A                 
1 40901U 15049C   22217.72764755  .00006022  00000+0  24481-3 0  9991
2 40901  97.4595 226.3079 0012268 163.3241 196.8402 15.24857952380967
ZDPS 2B                 
1 40902U 15049D   22217.88905723  .00005301  00000+0  21433-3 0  9994
2 40902  97.4677 224.2085 0012212 160.3392 264.9150 15.25097121380968
XW-2A                   
1 40903U 15049E   22217.84529104  .00012640  00000+0  18789-3 0  9990
2 40903  97.1749 276.5020 0007249 299.5528 184.9417 15.55273995386933
KAITUO 1A               
1 40904U 15049F   22217.93315694  .00001701  00000+0  86376-4 0  9992
2 40904  97.4954 219.9856 0013266 191.3938 227.1685 15.18214044380371
2015-049G               
1 40905U 15049G   22217.92376088  .00001469  00000+0  78187-4 0  9998
2 40905  97.5150 217.1794 0014391 195.2507 224.1475 15.16757506380116
XW-2C                   
1 40906U 15049H   22217.92227882  .00002286  00000+0  11080-3 0  9992
2 40906  97.4927 220.9538 0013688 179.0951 241.3349 15.19477195380439
XW-2D                   
1 40907U 15049J   22217.92490715  .00002671  00000+0  12633-3 0  9993
2 40907  97.4918 220.9803 0013102 174.0680 254.9409 15.20185594380483
LILACSAT-2              
1 40908U 15049K   22217.92543083  .00001360  00000+0  74106-4 0  9999
2 40908  97.5176 218.0276 0014643 199.1348 219.8924 15.16021882379982
XW-2E                   
1 40909U 15049L   22217.85377513  .00004300  00000+0  17887-3 0  9994
2 40909  97.4650 225.5498 0012610 153.4336 328.8917 15.24242576380934
XW-2F                   
1 40910U 15049M   22217.91638664  .00004249  00000+0  17956-3 0  9999
2 40910  97.4730 224.7580 0013758 155.1045 252.3056 15.23709330380714
XW-2B                   
1 40911U 15049N   22217.75953390  .00002481  00000+0  11799-3 0  9993
2 40911  97.4916 221.4022 0013004 175.8693 271.0765 15.20066456380344
KAITUO 1B               
1 40912U 15049P   22217.76433811  .00005197  00000+0  19890-3 0  9993
2 40912  97.4362 228.9539 0014319 123.9043 346.5060 15.26911936381275
TIANWANG 1A (TW-1A)     
1 40928U 15051D   22217.89649398  .00028953  00000+0  31460-3 0  9998
2 40928  97.0364 240.2355 0007316 175.8992 306.4163 15.63407430385959
LAPAN-A2                
1 40931U 15052B   22217.54734148  .00000650  00000+0  12480-5 0  9990
2 40931   5.9975 178.8062 0012539 143.9027 216.2253 14.76837408370618
E-ST@R-II               
1 41459U 16025D   22217.72936518  .00007824  00000+0  33099-3 0  9999
2 41459  98.1913  26.5756 0143847 102.1533 259.5860 15.14509765344952
AAUSAT 4                
1 41460U 16025E   22217.97244135  .00010542  00000+0  38907-3 0  9999
2 41460  98.1819  33.5074 0122647  75.8357 285.6498 15.21094997345463
NUSAT-1 (FRESCO)        
1 41557U 16033B   22217.86194441  .00006414  00000+0  18707-3 0  9996
2 41557  97.3901 315.6821 0010489 192.4124 308.4845 15.35657593344961
